{"type": "FeatureCollection", "features": [ {"type": "Feature", "properties": {"norad_id": 66727, "name": "FLOCK 4H-24", "group": "last-30-days", "lat": -5.785916363623817, "lon": -112.2989169855135, "alt_km": 517.3253890449323, "timestamp": "2025-12-22T20:43:44.565123+00:00", "meta": {"OBJECT_NAME": "FLOCK 4H-24", "OBJECT_ID": "2025-276BP", "EPOCH": "2025-12-22T11:59:56.829984", "MEAN_MOTION": 15.17320161, "ECCENTRICITY": 0.00028091, "INCLINATION": 97.4443, "RA_OF_ASC_NODE": 68.1028, "ARG_OF_PERICENTER": 264.6758, "MEAN_ANOMALY": 95.4155, "EPHEMERIS_TYPE": 0, "CLASSIFICATION_TYPE": "U", "NORAD_CAT_ID": 66727, "ELEMENT_SET_NO": 999, "REV_AT_EPOCH": 360, "BSTAR": 0.00028902486, "MEAN_MOTION_DOT": 5.698e-05, "MEAN_MOTION_DDOT": 0}, "tle": {"line1": "1 66727U 25276BP  25356.49996331  .00005698  00000+0  28902-3 0  9996", "line2": "2 66727  97.4443  68.1028 0002809 264.6758  95.4155 15.17320161  3608"}}, "geometry": {"type": "Point", "coordinates": [-112.2989169855135, -5.785916363623817]}}, {"type": "Feature", "properties": {"norad_id": 66728, "name": "FLOCK 4H-25", "group": "last-30-days", "lat": -79.59572378082188, "lon": -156.89793149934113, "alt_km": 519.5427697085515, "timestamp": "2025-12-22T20:43:44.565133+00:00", "meta": {"OBJECT_NAME": "FLOCK 4H-25", "OBJECT_ID": "2025-276BQ", "EPOCH": "2025-12-22T11:39:58.829184", "MEAN_MOTION": 15.18204755, "ECCENTRICITY": 0.00016259, "INCLINATION": 97.44, "RA_OF_ASC_NODE": 68.105, "ARG_OF_PERICENTER": 117.8452, "MEAN_ANOMALY": 242.2947, "EPHEMERIS_TYPE": 0, "CLASSIFICATION_TYPE": "U", "NORAD_CAT_ID": 66728, "ELEMENT_SET_NO": 999, "REV_AT_EPOCH": 288, "BSTAR": 0.00032955451, "MEAN_MOTION_DOT": 6.674e-05, "MEAN_MOTION_DDOT": 0}, "tle": {"line1": "1 66728U 25276BQ  25356.48609756  .00006674  00000+0  32955-3 0  9996", "line2": "2 66728  97.4400  68.1050 0001625 117.8452 242.2947 15.18204755  2883"}}, "geometry": {"type": "Point", "coordinates": [-156.89793149934113, -79.59572378082188]}}, {"type": "Feature", "properties": {"norad_id": 66729, "name": "FLOCK 4H-26", "group": "last-30-days", "lat": 11.369506411156362, "lon": -110.05851339251497, "alt_km": 516.0659175962919, "timestamp": "2025-12-22T20:43:44.565143+00:00", "meta": {"OBJECT_NAME": "FLOCK 4H-26", "OBJECT_ID": "2025-276BR", "EPOCH": "2025-12-22T12:04:26.741856", "MEAN_MOTION": 15.17145256, "ECCENTRICITY": 0.00036371, "INCLINATION": 97.4396, "RA_OF_ASC_NODE": 68.0818, "ARG_OF_PERICENTER": 262.6705, "MEAN_ANOMALY": 97.4116, "EPHEMERIS_TYPE": 0, "CLASSIFICATION_TYPE": "U", "NORAD_CAT_ID": 66729, "ELEMENT_SET_NO": 999, "REV_AT_EPOCH": 360, "BSTAR": 0.00057609549, "MEAN_MOTION_DOT": 0.00011375, "MEAN_MOTION_DDOT": 0}, "tle": {"line1": "1 66729U 25276BR  25356.50308729  .00011375  00000+0  57610-3 0  9995", "line2": "2 66729  97.4396  68.0818 0003637 262.6705  97.4116 15.17145256  3602"}}, "geometry": {"type": "Point", "coordinates": [-110.05851339251497, 11.369506411156362]}}, {"type": "Feature", "properties": {"norad_id": 66730, "name": "FLOCK 4H-27", "group": "last-30-days", "lat": -69.73275383140967, "lon": -132.25413350506727, "alt_km": 519.3282394640819, "timestamp": "2025-12-22T20:43:44.565153+00:00", "meta": {"OBJECT_NAME": "FLOCK 4H-27", "OBJECT_ID": "2025-276BS", "EPOCH": "2025-12-22T11:43:00.198336", "MEAN_MOTION": 15.18076839, "ECCENTRICITY": 0.00010679, "INCLINATION": 97.4375, "RA_OF_ASC_NODE": 68.0949, "ARG_OF_PERICENTER": 129.2947, "MEAN_ANOMALY": 230.8382, "EPHEMERIS_TYPE": 0, "CLASSIFICATION_TYPE": "U", "NORAD_CAT_ID": 66730, "ELEMENT_SET_NO": 999, "REV_AT_EPOCH": 360, "BSTAR": 0.00056014722, "MEAN_MOTION_DOT": 0.00011356, "MEAN_MOTION_DDOT": 0}, "tle": {"line1": "1 66730U 25276BS  25356.48819674  .00011356  00000+0  56015-3 0  9997", "line2": "2 66730  97.4375  68.0949 0001067 129.2947 230.8382 15.18076839  3606"}}, "geometry": {"type": "Point", "coordinates": [-132.25413350506727, -69.73275383140967]}}, {"type": "Feature", "properties": {"norad_id": 66731, "name": "FLOCK 4H-28", "group": "last-30-days", "lat": 9.660035574021018, "lon": -110.29268961708831, "alt_km": 516.3659110071494, "timestamp": "2025-12-22T20:43:44.565165+00:00", "meta": {"OBJECT_NAME": "FLOCK 4H-28", "OBJECT_ID": "2025-276BT", "EPOCH": "2025-12-22T12:03:59.346144", "MEAN_MOTION": 15.17134421, "ECCENTRICITY": 0.00033015, "INCLINATION": 97.4386, "RA_OF_ASC_NODE": 68.0787, "ARG_OF_PERICENTER": 264.9699, "MEAN_ANOMALY": 95.1158, "EPHEMERIS_TYPE": 0, "CLASSIFICATION_TYPE": "U", "NORAD_CAT_ID": 66731, "ELEMENT_SET_NO": 999, "REV_AT_EPOCH": 360, "BSTAR": 0.00051062406, "MEAN_MOTION_DOT": 0.00010069, "MEAN_MOTION_DDOT": 0}, "tle": {"line1": "1 66731U 25276BT  25356.50277021  .00010069  00000+0  51062-3 0  9992", "line2": "2 66731  97.4386  68.0787 0003301 264.9699  95.1158 15.17134421  3607"}}, "geometry": {"type": "Point", "coordinates": [-110.29268961708831, 9.660035574021018]}}, {"type": "Feature", "properties": {"norad_id": 66732, "name": "FLOCK 4H-29", "group": "last-30-days", "lat": -1.819660869865101, "lon": -111.80246607899406, "alt_km": 519.4158994523541, "timestamp": "2025-12-22T20:43:44.565204+00:00", "meta": {"OBJECT_NAME": "FLOCK 4H-29", "OBJECT_ID": "2025-276BU", "EPOCH": "2025-12-22T10:25:53.751360", "MEAN_MOTION": 15.17018278, "ECCENTRICITY": 0.00017222, "INCLINATION": 97.4395, "RA_OF_ASC_NODE": 68.0143, "ARG_OF_PERICENTER": 317.5113, "MEAN_ANOMALY": 42.5987, "EPHEMERIS_TYPE": 0, "CLASSIFICATION_TYPE": "U", "NORAD_CAT_ID": 66732, "ELEMENT_SET_NO": 999, "REV_AT_EPOCH": 359, "BSTAR": -0.0080869247, "MEAN_MOTION_DOT": -0.0015644, "MEAN_MOTION_DDOT": 0}, "tle": {"line1": "1 66732U 25276BU  25356.43464990 -.00156440  00000+0 -80869-2 0  9990", "line2": "2 66732  97.4395  68.0143 0001722 317.5113  42.5987 15.17018278  3590"}}, "geometry": {"type": "Point", "coordinates": [-111.80246607899406, -1.819660869865101]}}, {"type": "Feature", "properties": {"norad_id": 66733, "name": "FLOCK 4H-30", "group": "last-30-days", "lat": 3.6096349853473813, "lon": -111.06952628762747, "alt_km": 515.2878111320861, "timestamp": "2025-12-22T20:43:44.565218+00:00", "meta": {"OBJECT_NAME": "FLOCK 4H-30", "OBJECT_ID": "2025-276BV", "EPOCH": "2025-12-22T08:52:29.817120", "MEAN_MOTION": 15.17276414, "ECCENTRICITY": 0.0004153, "INCLINATION": 97.4432, "RA_OF_ASC_NODE": 67.9727, "ARG_OF_PERICENTER": 240.8291, "MEAN_ANOMALY": 119.2528, "EPHEMERIS_TYPE": 0, "CLASSIFICATION_TYPE": "U", "NORAD_CAT_ID": 66733, "ELEMENT_SET_NO": 999, "REV_AT_EPOCH": 358, "BSTAR": 0.0014141253, "MEAN_MOTION_DOT": 0.00028188, "MEAN_MOTION_DDOT": 0}, "tle": {"line1": "1 66733U 25276BV  25356.36978955  .00028188  00000+0  14141-2 0  9999", "line2": "2 66733  97.4432  67.9727 0004153 240.8291 119.2528 15.17276414  3585"}}, "geometry": {"type": "Point", "coordinates": [-111.06952628762747, 3.6096349853473813]}}, {"type": "Feature", "properties": {"norad_id": 66734, "name": "FLOCK 4H-31", "group": "last-30-days", "lat": 3.0015771641401647, "lon": -111.1755147537137, "alt_km": 515.5168738271132, "timestamp": "2025-12-22T20:43:44.565229+00:00", "meta": {"OBJECT_NAME": "FLOCK 4H-31", "OBJECT_ID": "2025-276BW", "EPOCH": "2025-12-22T10:27:16.086240", "MEAN_MOTION": 15.17171185, "ECCENTRICITY": 0.00026122, "INCLINATION": 97.4387, "RA_OF_ASC_NODE": 68.0117, "ARG_OF_PERICENTER": 208.479, "MEAN_ANOMALY": 151.6301, "EPHEMERIS_TYPE": 0, "CLASSIFICATION_TYPE": "U", "NORAD_CAT_ID": 66734, "ELEMENT_SET_NO": 999, "REV_AT_EPOCH": 359, "BSTAR": 0.00010857684, "MEAN_MOTION_DOT": 2.089e-05, "MEAN_MOTION_DDOT": 0}, "tle": {"line1": "1 66734U 25276BW  25356.43560285  .00002089  00000+0  10858-3 0  9995", "line2": "2 66734  97.4387  68.0117 0002612 208.4790 151.6301 15.17171185  3591"}}, "geometry": {"type": "Point", "coordinates": [-111.1755147537137, 3.0015771641401647]}}, {"type": "Feature", "properties": {"norad_id": 66735, "name": "FLOCK 4H-32", "group": "last-30-days", "lat": 5.324379487823896, "lon": -110.85227761995986, "alt_km": 516.4459960518861, "timestamp": "2025-12-22T20:43:44.565239+00:00", "meta": {"OBJECT_NAME": "FLOCK 4H-32", "OBJECT_ID": "2025-276BX", "EPOCH": "2025-12-22T12:02:51.813312", "MEAN_MOTION": 15.17219909, "ECCENTRICITY": 0.00036038, "INCLINATION": 97.4431, "RA_OF_ASC_NODE": 68.0943, "ARG_OF_PERICENTER": 262.49, "MEAN_ANOMALY": 97.5924, "EPHEMERIS_TYPE": 0, "CLASSIFICATION_TYPE": "U", "NORAD_CAT_ID": 66735, "ELEMENT_SET_NO": 999, "REV_AT_EPOCH": 360, "BSTAR": 0.00051474548, "MEAN_MOTION_DOT": 0.00010176, "MEAN_MOTION_DDOT": 0}, "tle": {"line1": "1 66735U 25276BX  25356.50198858  .00010176  00000+0  51475-3 0  9993", "line2": "2 66735  97.4431  68.0943 0003603 262.4900  97.5924 15.17219909  3601"}}, "geometry": {"type": "Point", "coordinates": [-110.85227761995986, 5.324379487823896]}}, {"type": "Feature", "properties": {"norad_id": 66736, "name": "FLOCK 4H-33", "group": "last-30-days", "lat": -81.23230291943925, "lon": -169.46809032407418, "alt_km": 518.8540704928155, "timestamp": "2025-12-22T20:43:44.565249+00:00", "meta": {"OBJECT_NAME": "FLOCK 4H-33", "OBJECT_ID": "2025-276BY", "EPOCH": "2025-12-22T11:39:18.653184", "MEAN_MOTION": 15.18279241, "ECCENTRICITY": 0.00025995, "INCLINATION": 97.443, "RA_OF_ASC_NODE": 68.1153, "ARG_OF_PERICENTER": 161.2483, "MEAN_ANOMALY": 198.8847, "EPHEMERIS_TYPE": 0, "CLASSIFICATION_TYPE": "U", "NORAD_CAT_ID": 66736, "ELEMENT_SET_NO": 999, "REV_AT_EPOCH": 360, "BSTAR": 0.00061269127, "MEAN_MOTION_DOT": 0.00012503, "MEAN_MOTION_DDOT": 0}, "tle": {"line1": "1 66736U 25276BY  25356.48563256  .00012503  00000+0  61269-3 0  9997", "line2": "2 66736  97.4430  68.1153 0002599 161.2483 198.8847 15.18279241  3605"}}, "geometry": {"type": "Point", "coordinates": [-169.46809032407418, -81.23230291943925]}}]}